COSMOS 2433 (720)       
1 32275U 07052A   24026.09488172 -.00000082  00000+0  00000+0 0  9995
2 32275  65.9838 345.1514 0004511 274.0995  85.8397  2.13104078126454
COSMOS 2432 (719)       
1 32276U 07052B   24028.27789546 -.00000072  00000+0  00000+0 0  9996
2 32276  65.9978 345.1901 0012102 322.3860 218.9293  2.13103397126528
COSMOS 2434 (721)       
1 32393U 07065A   24025.52271824  .00000070  00000+0  00000+0 0  9997
2 32393  64.3261 221.4444 0005108  74.8875  97.8041  2.13103165125186
COSMOS 2436 (723)       
1 32395U 07065C   24028.16723733  .00000063  00000+0  00000+0 0  9995
2 32395  64.3355 221.4177 0017274   9.5359 167.2830  2.13102886125169
COSMOS 2456 (730)       
1 36111U 09070A   24028.48685302  .00000002  00000+0  00000+0 0  9990
2 36111  64.5493 100.7868 0004430 296.0233 147.5987  2.13099007109878
COSMOS 2457 (733)       
1 36112U 09070B   24028.27967969  .00000002  00000+0  00000+0 0  9990
2 36112  64.5335 100.6558 0004645 179.4060 237.2215  2.13101194109871
COSMOS 2460 (732)       
1 36402U 10007C   24028.48477126 -.00000071  00000+0  00000+0 0  9995
2 36402  65.8424 343.7625 0002574 315.9299 248.1981  2.13106325108175
COSMOS 2476 (744)       
1 37867U 11064A   24025.68244104 -.00000010  00000+0  00000+0 0  9995
2 37867  64.8251 102.4646 0023834 236.5534 126.2221  2.13101679 95156
COSMOS 2477 (745)       
1 37868U 11064B   24028.26791808  .00000003  00000+0  00000+0 0  9992
2 37868  64.8333 102.4477 0021086 237.6807 126.3729  2.13101489 95201
COSMOS 2475 (743)       
1 37869U 11064C   24028.41132068  .00000003  00000+0  00000+0 0  9997
2 37869  64.8404 102.4565 0025773 252.6745 179.9971  2.13101687 95218
COSMOS 2485 (747)       
1 39155U 13019A   24028.43634218  .00000004  00000+0  00000+0 0  9996
2 39155  64.9851 102.9257 0024211 233.0176 126.8255  2.13101720 83722
COSMOS 2492 (754)       
1 39620U 14012A   24027.92245666 -.00000073  00000+0  00000+0 0  9992
2 39620  65.7252 343.3788 0015102 319.7153  40.1690  2.13103227 76670
COSMOS 2500 (755)       
1 40001U 14032A   24028.10378033 -.00000073  00000+0  00000+0 0  9995
2 40001  65.6630 343.1889 0006157 225.7227 134.2240  2.13106171 74891
COSMOS 2501 (702K)      
1 40315U 14075A   24027.88622582  .00000061  00000+0  00000+0 0  9991
2 40315  63.6290 220.5901 0018066 203.3390 156.6036  2.13101416 71285
COSMOS 2514 (751)       
1 41330U 16008A   24028.33720333 -.00000072  00000+0  00000+0 0  9994
2 41330  65.4588 342.7259 0010156 225.2987 134.6170  2.13102712 62064
COSMOS 2522 (752)       
1 42939U 17055A   24028.64762068  .00000065  00000+0  00000+0 0  9999
2 42939  64.0895 221.5737 0005236 229.8702 130.1082  2.13102002 49429
COSMOS 2527 (756)       
1 43508U 18053A   24027.66793525  .00000003  00000+0  00000+0 0  9996
2 43508  65.1455 103.0743 0009437 232.8425 127.1344  2.13102407 43701
COSMOS 2529 (757)       
1 43687U 18086A   24027.29791361  .00000061  00000+0  00000+0 0  9999
2 43687  64.3051 222.0945 0006592 265.3944  94.5609  2.13102113 40706
COSMOS 2534 (758)       
1 44299U 19030A   24028.76914590  .00000066  00000+0  00000+0 0  9998
2 44299  64.3780 221.9845 0009296 292.9209 249.9155  2.13102177 36365
COSMOS 2544 (759)       
1 44850U 19088A   24028.08108302  .00000004  00000+0  00000+0 0  9997
2 44850  65.1320 102.9004 0014320 255.3420 104.5637  2.13102158 32135
COSMOS 2545 (760)       
1 45358U 20018A   24027.33939469 -.00000078  00000+0  00000+0 0  9991
2 45358  64.7997 342.8864 0010485 258.6220 101.2558  2.13102673 30085
COSMOS 2547 (705K)      
1 46805U 20075A   24028.46622108  .00000064  00000+0  00000+0 0  9990
2 46805  64.6061 221.5945 0005310 234.7300 125.2456  2.13103039 25356
COSMOS 2557 (706K)      
1 52984U 22075A   24028.16050433 -.00000074  00000+0  00000+0 0  9992
2 52984  64.7209 345.0020 0013665 284.6430  75.2021  2.13101904 12157
COSMOS 2559 (707K)      
1 54031U 22130A   24028.10295985 -.00000075  00000+0  00000+0 0  9997
2 54031  64.6922 345.1264 0006663 239.3416 120.5892  2.13101237 10129
COSMOS 2564 (761)       
1 54377U 22161A   24027.82593786  .00000062  00000+0  00000+0 0  9997
2 54377  64.7471 221.6952 0007223 205.8913 154.1004  2.13102217  9065
COSMOS 2569 (703K)      
1 57517U 23114A   24028.31360961  .00000003  00000+0  00000+0 0  9992
2 57517  64.8568 102.0931 0011407 291.5598  68.3845  2.13104335  3708
